GAOFEN 13               
1 46610U 20071A   21074.41160689 -.00000374  00000-0  00000-0 0  9991
2 46610   1.6328 280.0998 0004266 235.0518 284.0478  1.00269208  1661
TIANTONG-1 2            
1 46916U 20082A   21074.57827141 -.00000369  00000-0  00000-0 0  9996
2 46916   5.2106 299.2280 0001729 118.9238  88.3420  1.00273268  1404
LUCAS (JDRS-1)          
1 47202U 20089A   21074.41108454 -.00000245  00000-0  00000-0 0  9997
2 47202   0.0329 113.4880 0002190 247.2279  51.2605  1.00270442  1157
SXM-7                   
1 47240U 20096A   21074.55606691  .00000001  00000-0  00000-0 0  9997
2 47240   0.0355  83.6646 0003467 350.2603 179.0974  1.00269703  1077
CMS-01                  
1 47256U 20099A   21074.49146623 -.00000175  00000-0  00000-0 0  9997
2 47256   0.0105 145.2098 0006163 143.1828 144.8434  1.00271521   944
TIANTONG-1 3            
1 47321U 21003A   21074.19444067 -.00000170  00000-0  00000-0 0  9991
2 47321   5.4172 309.7468 0001092  95.4807 279.2706  1.00273676   724
TJS-6                   
1 47613U 21010A   21074.64950302  .00000033  00000-0  00000-0 0  9994
2 47613   0.9410 282.4182 0001935  72.4878 230.8747  1.00272512   582
